{
    "links": {
        "self": "http://www.neowsapp.com/rest/v1/neo/3547770?api_key=iIulBulltgU6a56xZRHN4H3l9WmuAYTsLGpBGhQ2"
    },
    "id": "3547770",
    "neo_reference_id": "3547770",
    "name": "(2010 TD)",
    "designation": "2010 TD",
    "nasa_jpl_url": "http://ssd.jpl.nasa.gov/sbdb.cgi?sstr=3547770",
    "absolute_magnitude_h": 26.8,
    "estimated_diameter": {
        "kilometers": {
            "estimated_diameter_min": 0.0116025908,
            "estimated_diameter_max": 0.0259441818
        },
        "meters": {
            "estimated_diameter_min": 11.6025908209,
            "estimated_diameter_max": 25.9441817907
        },
        "miles": {
            "estimated_diameter_min": 0.0072095135,
            "estimated_diameter_max": 0.0161209622
        },
        "feet": {
            "estimated_diameter_min": 38.066244069,
            "estimated_diameter_max": 85.1187093863
        }
    },
    "is_potentially_hazardous_asteroid": false,
    "close_approach_data": [
        {
            "close_approach_date": "2010-07-25",
            "close_approach_date_full": "2010-Jul-25 03:34",
            "epoch_date_close_approach": 1280028840000,
            "relative_velocity": {
                "kilometers_per_second": "17.910176227",
                "kilometers_per_hour": "64476.6344173645",
                "miles_per_hour": "40063.2732022785"
            },
            "miss_distance": {
                "astronomical": "0.1073514616",
                "lunar": "41.7597185624",
                "kilometers": "16059549.996746792",
                "miles": "9978941.6383060496"
            },
            "orbiting_body": "Venus"
        },
        {
            "close_approach_date": "2010-09-26",
            "close_approach_date_full": "2010-Sep-26 09:08",
            "epoch_date_close_approach": 1285492080000,
            "relative_velocity": {
                "kilometers_per_second": "18.6878163321",
                "kilometers_per_hour": "67276.1387954689",
                "miles_per_hour": "41802.7763532179"
            },
            "miss_distance": {
                "astronomical": "0.0050089329",
                "lunar": "1.9484748981",
                "kilometers": "749325.692812923",
                "miles": "465609.3949194174"
            },
            "orbiting_body": "Earth"
        },
        {
            "close_approach_date": "2010-09-26",
            "close_approach_date_full": "2010-Sep-26 14:04",
            "epoch_date_close_approach": 1285509840000,
            "relative_velocity": {
                "kilometers_per_second": "19.1940299481",
                "kilometers_per_hour": "69098.5078130246",
                "miles_per_hour": "42935.1255908208"
            },
            "miss_distance": {
                "astronomical": "0.0048269281",
                "lunar": "1.8776750309",
                "kilometers": "722098.162403147",
                "miles": "448690.9920395486"
            },
            "orbiting_body": "Moon"
        },
        {
            "close_approach_date": "2068-04-24",
            "close_approach_date_full": "2068-Apr-24 11:48",
            "epoch_date_close_approach": 3102493680000,
            "relative_velocity": {
                "kilometers_per_second": "18.1282379948",
                "kilometers_per_hour": "65261.6567813844",
                "miles_per_hour": "40551.055570633"
            },
            "miss_distance": {
                "astronomical": "0.0334021979",
                "lunar": "12.9934549831",
                "kilometers": "4996897.659158473",
                "miles": "3104928.2279660074"
            },
            "orbiting_body": "Earth"
        },
        {
            "close_approach_date": "2068-05-20",
            "close_approach_date_full": "2068-May-20 07:43",
            "epoch_date_close_approach": 3104725380000,
            "relative_velocity": {
                "kilometers_per_second": "19.987028282",
                "kilometers_per_hour": "71953.3018152421",
                "miles_per_hour": "44708.983564032"
            },
            "miss_distance": {
                "astronomical": "0.1462430201",
                "lunar": "56.8885348189",
                "kilometers": "21877644.309327187",
                "miles": "13594137.8052697006"
            },
            "orbiting_body": "Venus"
        }
    ],
    "orbital_data": {
        "orbit_id": "10",
        "orbit_determination_date": "2017-04-06 08:56:28",
        "first_observation_date": "2010-10-01",
        "last_observation_date": "2010-10-09",
        "data_arc_in_days": 8,
        "observations_used": 37,
        "orbit_uncertainty": "8",
        "minimum_orbit_intersection": ".00501339",
        "jupiter_tisserand_invariant": "3.340",
        "epoch_osculation": "2455472.5",
        "eccentricity": ".6768362658284014",
        "semi_major_axis": "2.17786258181028",
        "inclination": "3.226297869112537",
        "ascending_node_longitude": "188.0765557517543",
        "orbital_period": "1173.935231979441",
        "perihelion_distance": ".7038062044504086",
        "perihelion_argument": "100.055379051865",
        "aphelion_distance": "3.651918959170151",
        "perihelion_time": "2455421.091331220259",
        "mean_anomaly": "15.76502711269753",
        "mean_motion": ".306660870372706",
        "equinox": "J2000",
        "orbit_class": {
            "orbit_class_type": "APO",
            "orbit_class_description": "Near-Earth asteroid orbits which cross the Earth’s orbit similar to that of 1862 Apollo",
            "orbit_class_range": "a (semi-major axis) > 1.0 AU; q (perihelion) < 1.017 AU"
        }
    },
    "is_sentry_object": false
}